NORAD_CAT_ID,OBJECT_NAME,OBJECT_TYPE,EPOCH,MEAN_MOTION,ECCENTRICITY,INCLINATION,RA_OF_ASC_NODE,ARG_OF_PERICENTER,MEAN_ANOMALY,BSTAR,MEAN_MOTION_DOT,MEAN_MOTION_DDOT,TLE_LINE0,TLE_LINE1,TLE_LINE2,SEMIMAJOR_AXIS,PERIOD,APOGEE,PERIGEE,DECAYED
52642.0,STARLINK-3971,PAYLOAD,2022-09-08 22:00:00,15.08821513,0.0002218999999999,53.2134,235.2611,50.4805,32.8241,0.0024636999999999,0.00039121,0.0,0 STARLINK-3971,1 52642U 22052AW  22251.91667824  .00039121  00000-0  24637-2 0  9995,2 52642  53.2134 235.2611 0002219  50.4805  32.8241 15.08821513  1303,6917.937,95.439,541.337,538.2669999999998,0.0
52642.0,STARLINK-3971,PAYLOAD,2022-09-09 14:00:01,15.08873914,0.0002335999999999,53.2136,232.2692,46.5728,59.9138,-0.0035215,-0.00055952,0.0,0 STARLINK-3971,1 52642U 22052AW  22252.58334491 -.00055952  00000-0 -35215-2 0  9996,2 52642  53.2136 232.2692 0002336  46.5728  59.9138 15.08873914  1308,6917.776999999999,95.435,541.258,538.026,0.0
52642.0,STARLINK-3971,PAYLOAD,2022-09-09 22:00:00,15.088245,0.0002181,53.2141,230.7715,51.1094,66.9931,0.0015505999999999,0.00024466,0.0,0 STARLINK-3971,1 52642U 22052AW  22252.91667824  .00024466  00000-0  15506-2 0  9997,2 52642  53.2141 230.7715 0002181  51.1094  66.9931 15.08824500  1305,6917.928000000001,95.439,541.302,538.284,0.0
52642.0,STARLINK-3971,PAYLOAD,2022-09-10 14:00:01,15.08861712,0.0002254999999999,53.2141,227.7795,47.3006,93.9803,-0.0019745,-0.00031595,0.0,0 STARLINK-3971,1 52642U 22052AW  22253.58334491 -.00031595  00000-0 -19745-2 0  9994,2 52642  53.2141 227.7795 0002255  47.3006  93.9803 15.08861712  1305,6917.814,95.436,541.239,538.119,0.0
52642.0,STARLINK-3971,PAYLOAD,2022-09-10 20:00:01,15.08835396,0.0002089999999999,53.2142,226.6561,50.5663,9.4277,0.00025451,3.764e-05,0.0,0 STARLINK-3971,1 52642U 22052AW  22253.83334491  .00003764  00000-0  25451-3 0  9999,2 52642  53.2142 226.6561 0002090  50.5663   9.4277 15.08835396 18895,6917.894,95.438,541.205,538.314,0.0
52642.0,STARLINK-3971,PAYLOAD,2022-09-10 22:00:00,15.08843433,0.0002104,53.2145,226.2821,51.7932,101.0956,-0.00059897,-9.809e-05,0.0,0 STARLINK-3971,1 52642U 22052AW  22253.91667824 -.00009809  00000-0 -59897-3 0  9996,2 52642  53.2145 226.2821 0002104  51.7932 101.0956 15.08843433  1303,6917.87,95.437,541.19,538.279,0.0
52642.0,STARLINK-3971,PAYLOAD,2022-09-11 14:00:01,15.08855177,0.0002142,53.2142,223.29,47.708,128.3618,-0.0015880999999999,-0.00025485,0.0,0 STARLINK-3971,1 52642U 22052AW  22254.58334491 -.00025485  00000-0 -15881-2 0  9993,2 52642  53.2142 223.2900 0002142  47.7080 128.3618 15.08855177  1301,6917.834,95.437,541.181,538.217,0.0
52642.0,STARLINK-3971,PAYLOAD,2022-09-11 22:00:00,15.0885315,0.0002024,53.2146,221.793,52.606,135.0634,-0.0015208,-0.00024419,0.0,0 STARLINK-3971,1 52642U 22052AW  22254.91667824 -.00024419  00000-0 -15208-2 0  9998,2 52642  53.2146 221.7930 0002024  52.6060 135.0634 15.08853150  1305,6917.84,95.437,541.105,538.305,0.0
52642.0,STARLINK-3971,PAYLOAD,2022-09-12 04:00:00,15.08834723,0.0002126,53.2143,220.6721,47.7822,58.5941,-0.00067316,-0.00010984,0.0,0 STARLINK-3971,1 52642U 22052AW  22255.16667824 -.00010984  00000-0 -67316-3 0  9996,2 52642  53.2143 220.6721 0002126  47.7822  58.5941 15.08834723 19092,6917.897,95.438,541.232,538.2909999999998,0.0
52642.0,STARLINK-3971,PAYLOAD,2022-09-12 14:00:01,15.08855431,0.0002046999999999,53.2141,218.8007,48.5944,162.2627,-0.0013503,-0.00021724,0.0,0 STARLINK-3971,1 52642U 22052AW  22255.58334491 -.00021724  00000-0 -13503-2 0  9995,2 52642  53.2141 218.8007 0002047  48.5944 162.2627 15.08855431  1300,6917.833000000001,95.437,541.114,538.2819999999998,0.0
52642.0,STARLINK-3971,PAYLOAD,2022-09-12 20:00:01,15.08845449,0.0001947,53.2142,217.6776,52.40600000000001,77.219,1.4273e-05,-6.1e-07,0.0,0 STARLINK-3971,1 52642U 22052AW  22255.83335648 -.00000061  00000-0  14273-4 0  9995,2 52642  53.2142 217.6776 0001947  52.4060  77.2190 15.08845449 19196,6917.864000000001,95.437,541.076,538.382,0.0
52642.0,STARLINK-3971,PAYLOAD,2022-09-12 22:00:00,15.08861751,0.0001947,53.2144,217.3039,52.9688,169.4887,-0.002008,-0.00032123,0.0,0 STARLINK-3971,1 52642U 22052AW  22255.91667824 -.00032123  00000-0 -20080-2 0  9994,2 52642  53.2144 217.3039 0001947  52.9688 169.4887 15.08861751  1303,6917.814,95.436,541.026,538.332,0.0
52642.0,STARLINK-3971,PAYLOAD,2022-09-13 14:00:01,15.08838599,0.0001926,53.214,214.3115,46.6928,198.9618,-0.0020939,-0.00033458,0.0,0 STARLINK-3971,1 52642U 22052AW  22256.58334491 -.00033458  00000-0 -20939-2 0  9994,2 52642  53.2140 214.3115 0001926  46.6928 198.9618 15.08838599  1308,6917.885,95.438,541.082,538.4169999999998,0.0
52642.0,STARLINK-3971,PAYLOAD,2022-09-13 16:00:00,15.08808127,0.0001865999999999,53.2145,213.937,48.4925,290.0671,0.0016652999999999,0.00026292,0.0,0 STARLINK-3971,1 52642U 22052AW  22256.66667824  .00026292  00000-0  16653-2 0  9996,2 52642  53.2145 213.9370 0001866  48.4925 290.0671 15.08808127 19329,6917.978,95.44,541.134,538.552,0.0
52642.0,STARLINK-3971,PAYLOAD,2022-09-13 22:00:00,15.08832887,0.0001865999999999,53.2141,212.8148,51.3429,205.8813,0.0003545,5.357e-05,0.0,0 STARLINK-3971,1 52642U 22052AW  22256.91667824  .00005357  00000-0  35450-3 0  9990,2 52642  53.2141 212.8148 0001866  51.3429 205.8813 15.08832887  1309,6917.901999999999,95.438,541.058,538.476,0.0
52642.0,STARLINK-3971,PAYLOAD,2022-09-14 12:00:00,15.0877609,0.0001881,53.2161,210.1963,45.7455,141.7556,0.0036368999999999,0.00057968,0.0,0 STARLINK-3971,1 52642U 22052AW  22257.50001157  .00057968  00000-0  36369-2 0  9991,2 52642  53.2161 210.1963 0001881  45.7455 141.7556 15.08776090 19449,6918.076,95.442,541.242,538.639,0.0
52642.0,STARLINK-3971,PAYLOAD,2022-09-14 14:00:01,15.08766068,0.0001838,53.2168,209.8216,48.3007,232.0894,0.0060044,0.00096386,0.0,0 STARLINK-3971,1 52642U 22052AW  22257.58334491  .00096386  00000-0  60044-2 0  9993,2 52642  53.2168 209.8216 0001838  48.3007 232.0894 15.08766068  1305,6918.106,95.442,541.243,538.7,0.0
52642.0,STARLINK-3971,PAYLOAD,2022-09-14 22:00:00,15.08835041,0.0001875,53.2142,208.3257,50.0454,241.9057,0.00055942,8.625e-05,0.0,0 STARLINK-3971,1 52642U 22052AW  22257.91667824  .00008625  00000-0  55942-3 0  9990,2 52642  53.2142 208.3257 0001875  50.0454 241.9057 15.08835041  1301,6917.896,95.438,541.058,538.4630000000002,0.0
52642.0,STARLINK-3971,PAYLOAD,2022-09-15 04:00:00,15.08835139,0.0002037,53.214,207.2048,45.4618,165.1852,0.00017367,2.477e-05,0.0,0 STARLINK-3971,1 52642U 22052AW  22258.16667824  .00002477  00000-0  17367-3 0  9996,2 52642  53.2140 207.2048 0002037  45.4618 165.1852 15.08835139 19549,6917.895,95.438,541.169,538.351,0.0
52642.0,STARLINK-3971,PAYLOAD,2022-09-15 14:00:01,15.08845206,0.0001861,53.2149,205.3328,44.489,270.6661,-0.001393,-0.00022393,0.0,0 STARLINK-3971,1 52642U 22052AW  22258.58334491 -.00022393  00000-0 -13930-2 0  9995,2 52642  53.2149 205.3328 0001861  44.4890 270.6661 15.08845206  1304,6917.864000000001,95.437,541.0169999999998,538.442,0.0
52642.0,STARLINK-3971,PAYLOAD,2022-09-15 20:33:27,15.0884106,0.0001945,53.2161,204.1072,52.0383,308.0784,6.6927e-05,7.77e-06,0.0,0 STARLINK-3971,1 52642U 22052AW  22258.85657119  .00000777  00000-0  66927-4 0  9996,2 52642  53.2161 204.1072 0001945  52.0383 308.0784 15.08841060 19277,6917.877,95.437,541.0880000000002,538.3969999999998,0.0
52642.0,STARLINK-3971,PAYLOAD,2022-09-16 06:05:47,15.08825005,0.0001896999999999,53.2157,202.3222,45.3937,314.721,-6.5589e-05,-1.331e-05,0.0,0 STARLINK-3971,1 52642U 22052AW  22259.25402682 -.00001331  00000-0 -65589-4 0  9996,2 52642  53.2157 202.3222 0001897  45.3937 314.7210 15.08825005 19331,6917.926,95.439,541.104,538.479,0.0
52642.0,STARLINK-3971,PAYLOAD,2022-09-17 05:56:35,15.08829038,0.0001908,53.2159,197.862,49.8029,310.313,-1.396e-05,-5.1e-06,0.0,0 STARLINK-3971,1 52642U 22052AW  22260.24763271 -.00000510  00000-0 -13960-4 0  9995,2 52642  53.2159 197.8620 0001908  49.8029 310.3130 15.08829038 19486,6917.9140000000025,95.438,541.099,538.4590000000002,0.0
52642.0,STARLINK-3971,PAYLOAD,2022-09-17 20:15:03,15.0883659,0.0001844999999999,53.2151,195.1844,47.9691,312.1458,3.1328e-05,2.1e-06,0.0,0 STARLINK-3971,1 52642U 22052AW  22260.84378799  .00000210  00000-0  31328-4 0  9991,2 52642  53.2151 195.1844 0001845  47.9691 312.1458 15.08836590 19957,6917.891,95.438,541.0319999999998,538.479,0.0
52642.0,STARLINK-3971,PAYLOAD,2022-09-18 02:36:35,15.08842683,0.0001899,53.2154,193.996,47.5996,312.5156,8.9189e-05,1.132e-05,0.0,0 STARLINK-3971,1 52642U 22052AW  22261.10874272  .00001132  00000-0  89189-4 0  9990,2 52642  53.2154 193.9960 0001899  47.5996 312.5156 15.08842683 19991,6917.871999999999,95.437,541.0509999999998,538.423,0.0
52642.0,STARLINK-3971,PAYLOAD,2022-09-18 12:08:55,15.08799325,0.0001868,53.2144,192.2121,46.6362,313.4786,0.00047076,7.204e-05,0.0,0 STARLINK-3971,1 52642U 22052AW  22261.50620045  .00007204  00000-0  47076-3 0  9995,2 52642  53.2144 192.2121 0001868  46.6362 313.4786 15.08799325 19672,6918.005,95.44,541.1619999999998,538.577,0.0
52642.0,STARLINK-3971,PAYLOAD,2022-09-18 18:30:27,15.08830596,0.0002069,53.2151,191.0207,42.7247,317.3905,0.00013311,1.83e-05,0.0,0 STARLINK-3971,1 52642U 22052AW  22261.77115192  .00001830  00000-0  13311-3 0  9990,2 52642  53.2151 191.0207 0002069  42.7247 317.3905 15.08830596 19712,6917.909000000002,95.438,541.205,538.3430000000002,0.0
52642.0,STARLINK-3971,PAYLOAD,2022-09-19 04:02:46,15.08830293,0.0001879,53.2159,189.2386,46.8179,313.297,2.769e-05,1.52e-06,0.0,0 STARLINK-3971,1 52642U 22052AW  22262.16859625  .00000152  00000-0  27690-4 0  9992,2 52642  53.2159 189.2386 0001879  46.8179 313.2970 15.08830293 19771,6917.91,95.438,541.075,538.475,0.0
52642.0,STARLINK-3971,PAYLOAD,2022-09-20 00:42:46,15.08845022,0.0001954,53.2161,185.3727,48.1716,311.9443,-1.199e-05,-4.79e-06,0.0,0 STARLINK-3971,1 52642U 22052AW  22263.02970831 -.00000479  00000-0 -11990-4 0  9991,2 52642  53.2161 185.3727 0001954  48.1716 311.9443 15.08845022 20280,6917.865,95.437,541.082,538.378,0.0
